[{"OBJECT_NAME":"STARLINK-6179","OBJECT_ID":"2023-083AL","EPOCH":"2026-03-09T22:00:01.999584","MEAN_MOTION":15.06605558,"ECCENTRICITY":0.00020501,"INCLINATION":43.0008,"RA_OF_ASC_NODE":67.6718,"ARG_OF_PERICENTER":263.1606,"MEAN_ANOMALY":74.6473,"EPHEMERIS_TYPE":0,"CLASSIFICATION_TYPE":"U","NORAD_CAT_ID":56910,"ELEMENT_SET_NO":999,"REV_AT_EPOCH":572,"BSTAR":0.0046762264,"MEAN_MOTION_DOT":0.0007095,"MEAN_MOTION_DDOT":0},{"OBJECT_NAME":"OBJECT Z","OBJECT_ID":"2017-042Z","EPOCH":"2026-03-09T21:17:53.130336","MEAN_MOTION":15.06776019,"ECCENTRICITY":0.00062541,"INCLINATION":97.3821,"RA_OF_ASC_NODE":235.9429,"ARG_OF_PERICENTER":50.1524,"MEAN_ANOMALY":310.0253,"EPHEMERIS_TYPE":0,"CLASSIFICATION_TYPE":"U","NORAD_CAT_ID":42848,"ELEMENT_SET_NO":999,"REV_AT_EPOCH":47228,"BSTAR":0.00039314781,"MEAN_MOTION_DOT":5.795e-5,"MEAN_MOTION_DDOT":0}]
